STARLINK-3044_new
1 19438C 21104AG  21326.14706669 -.00822367  00000-0 -30338-2 0  3262
2 19438  53.2176  90.8200 0025588  64.9597 237.0161 15.87730249    18
STARLINK-3044_old
1 29438C 21104AG  21325.19012010 -.00863797  00000-0 -28719-2 0  3257
2 29438  53.2174  95.6647 0032715  63.4750 162.3832 15.89468942    14
